FLOCK 4G-13             
1 62621U 25009N   26068.70638971  .00053076  00000+0  16695-2 0  9995
2 62621  97.4019 151.0918 0003801 292.7207  67.3633 15.32770015 63700
STARLINK-34792          
1 65085U 25167H   26068.29405525  .00036989  00000+0  12553-2 0  9991
2 65085  53.1617  28.8965 0001315 113.0373 247.0767 15.30187314 33412
